$$SOE
2461309.500000000, A.D. 2026-Sep-26 00:00:00.0000, 1.029087902260782E+08, 7.517952399940131E+08, 8.733684527439946E+07,
2461316.500000000, A.D. 2026-Oct-03 00:00:00.0000, 9.538399350612655E+07, 7.542412486673656E+08, 8.587869949047235E+07,
2461323.500000000, A.D. 2026-Oct-10 00:00:00.0000, 8.784878133252349E+07, 7.566054162120088E+08, 8.441123082578278E+07,
2461330.500000000, A.D. 2026-Oct-17 00:00:00.0000, 8.030401805571753E+07, 7.588878891793703E+08, 8.293464399097684E+07,
2461337.500000000, A.D. 2026-Oct-24 00:00:00.0000, 7.275056098730704E+07, 7.610888223338661E+08, 8.144914275416011E+07,
2461344.500000000, A.D. 2026-Oct-31 00:00:00.0000, 6.518926040513270E+07, 7.632083782751998E+08, 7.995492989583671E+07,
2461351.500000000, A.D. 2026-Nov-07 00:00:00.0000, 5.762095998909302E+07, 7.652467269747148E+08, 7.845220711797035E+07,
2461358.500000000, A.D. 2026-Nov-14 00:00:00.0000, 5.004649788853979E+07, 7.672040461133720E+08, 7.694117496144825E+07,
2461365.500000000, A.D. 2026-Nov-21 00:00:00.0000, 4.246670660962398E+07, 7.690805229032328E+08, 7.542203295402396E+07,
2461372.500000000, A.D. 2026-Nov-28 00:00:00.0000, 3.488241072450610E+07, 7.708763543839595E+08, 7.389497983461249E+07,
2461379.500000000, A.D. 2026-Dec-05 00:00:00.0000, 2.729442602161250E+07, 7.725917455377395E+08, 7.236021346857238E+07,
2461386.500000000, A.D. 2026-Dec-12 00:00:00.0000, 1.970356026165182E+07, 7.742269083337911E+08, 7.081793069337583E+07,
2461393.500000000, A.D. 2026-Dec-19 00:00:00.0000, 1.211061365206493E+07, 7.757820617088654E+08, 6.926832726851141E+07,
2461400.500000000, A.D. 2026-Dec-26 00:00:00.0000, 4.516378897274770E+06, 7.772574316155622E+08, 6.771159787194020E+07,
2461407.500000000, A.D. 2027-Jan-02 00:00:00.0000, -3.078358899911103E+06, 7.786532509474881E+08, 6.614793610237837E+07,
2461414.500000000, A.D. 2027-Jan-09 00:00:00.0000, -1.067282236957030E+07, 7.799697593613805E+08, 6.457753447846085E+07,
2461421.500000000, A.D. 2027-Jan-16 00:00:00.0000, -1.826624200441229E+07, 7.812072030049489E+08, 6.300058443233997E+07,
2461428.500000000, A.D. 2027-Jan-23 00:00:00.0000, -2.585785624348022E+07, 7.823658341106789E+08, 6.141727629027492E+07,
2461435.500000000, A.D. 2027-Jan-30 00:00:00.0000, -3.344691132374941E+07, 7.834459104076917E+08, 5.982779921903825E+07,
2461442.500000000, A.D. 2027-Feb-06 00:00:00.0000, -4.103266047661621E+07, 7.844476946915911E+08, 5.823234112686741E+07,
2461449.500000000, A.D. 2027-Feb-13 00:00:00.0000, -4.861436293118359E+07, 7.853714557719820E+08, 5.663108866070604E+07,
2461456.500000000, A.D. 2027-Feb-20 00:00:00.0000, -5.619128508943810E+07, 7.862174700065264E+08, 5.502422745167905E+07,
2461463.500000000, A.D. 2027-Feb-27 00:00:00.0000, -6.376270247841644E+07, 7.869860202074533E+08, 5.341194221789724E+07,
2461470.500000000, A.D. 2027-Mar-06 00:00:00.0000, -7.132789946216208E+07, 7.876773938430686E+08, 5.179441660470337E+07,
2461477.500000000, A.D. 2027-Mar-13 00:00:00.0000, -7.888616831408311E+07, 7.882918825839672E+08, 5.017183307640916E+07,
2461484.500000000, A.D. 2027-Mar-20 00:00:00.0000, -8.643680877922729E+07, 7.888297823592615E+08, 4.854437289469129E+07,
2461491.500000000, A.D. 2027-Mar-27 00:00:00.0000, -9.397912792456020E+07, 7.892913933737656E+08, 4.691221612008286E+07,
2461498.500000000, A.D. 2027-Apr-03 00:00:00.0000, -1.015124400744469E+08, 7.896770200383148E+08, 4.527554161392677E+07,
2461505.500000000, A.D. 2027-Apr-10 00:00:00.0000, -1.090360667701847E+08, 7.899869708362473E+08, 4.363452703696495E+07,
2461512.500000000, A.D. 2027-Apr-17 00:00:00.0000, -1.165493367315973E+08, 7.902215581117033E+08, 4.198934884130770E+07,
2461519.500000000, A.D. 2027-Apr-24 00:00:00.0000, -1.240515857415621E+08, 7.903810977175394E+08, 4.034018224339861E+07,
2461526.500000000, A.D. 2027-May-01 00:00:00.0000, -1.315421561539427E+08, 7.904659085506569E+08, 3.868720115274948E+07,
2461533.500000000, A.D. 2027-May-08 00:00:00.0000, -1.390203957176507E+08, 7.904763127231796E+08, 3.703057808941180E+07,
2461540.500000000, A.D. 2027-May-15 00:00:00.0000, -1.464856572137523E+08, 7.904126373230509E+08, 3.537048430539942E+07,
2461547.500000000, A.D. 2027-May-22 00:00:00.0000, -1.539373004693741E+08, 7.902752151723406E+08, 3.370709004169226E+07,
2461554.500000000, A.D. 2027-May-29 00:00:00.0000, -1.613746933926194E+08, 7.900643831147048E+08, 3.204056449310529E+07,
2461561.500000000, A.D. 2027-Jun-05 00:00:00.0000, -1.687972111439252E+08, 7.897804809638853E+08, 3.037107565589809E+07,
2461568.500000000, A.D. 2027-Jun-12 00:00:00.0000, -1.762042354514040E+08, 7.894238515452555E+08, 2.869879027762926E+07,
2461575.500000000, A.D. 2027-Jun-19 00:00:00.0000, -1.835951544011624E+08, 7.889948408953909E+08, 2.702387386332363E+07,
2461582.500000000, A.D. 2027-Jun-26 00:00:00.0000, -1.909693624231933E+08, 7.884937983582999E+08, 2.534649069113445E+07,
2461589.500000000, A.D. 2027-Jul-03 00:00:00.0000, -1.983262603407364E+08, 7.879210765865732E+08, 2.366680382625747E+07,
2461596.500000000, A.D. 2027-Jul-10 00:00:00.0000, -2.056652554462610E+08, 7.872770314561414E+08, 2.198497513064557E+07,
2461603.500000000, A.D. 2027-Jul-17 00:00:00.0000, -2.129857615677036E+08, 7.865620218556812E+08, 2.030116526224917E+07,
2461610.500000000, A.D. 2027-Jul-24 00:00:00.0000, -2.202871989685363E+08, 7.857764092877233E+08, 1.861553364453119E+07,
2461617.500000000, A.D. 2027-Jul-31 00:00:00.0000, -2.275689936703028E+08, 7.849205575168231E+08, 1.692823838798761E+07,
2461624.500000000, A.D. 2027-Aug-07 00:00:00.0000, -2.348305763984839E+08, 7.839948334164736E+08, 1.523943627637768E+07,
2461631.500000000, A.D. 2027-Aug-14 00:00:00.0000, -2.420713834528798E+08, 7.829996087615097E+08, 1.354928300811380E+07,
2461638.500000000, A.D. 2027-Aug-21 00:00:00.0000, -2.492908588842700E+08, 7.819352596016520E+08, 1.185793336121005E+07,
2461645.500000000, A.D. 2027-Aug-28 00:00:00.0000, -2.564884545465123E+08, 7.808021644192739E+08, 1.016554106542528E+07,
2461652.500000000, A.D. 2027-Sep-04 00:00:00.0000, -2.636636292054467E+08, 7.796007035739683E+08, 8.472258694293916E+06,
2461659.500000000, A.D. 2027-Sep-11 00:00:00.0000, -2.708158480998777E+08, 7.783312593728212E+08, 6.778237650745869E+06,
2461666.500000000, A.D. 2027-Sep-18 00:00:00.0000, -2.779445828213757E+08, 7.769942161163003E+08, 5.083628180704832E+06,
2461673.500000000, A.D. 2027-Sep-25 00:00:00.0000, -2.850493112840095E+08, 7.755899600423019E+08, 3.388579387052119E+06,
2461680.500000000, A.D. 2027-Oct-02 00:00:00.0000, -2.921295177089404E+08, 7.741188791961820E+08, 1.693239239046037E+06,
2461687.500000000, A.D. 2027-Oct-09 00:00:00.0000, -2.991846926013730E+08, 7.725813632225969E+08, -2.245425494790077E+03,
2461694.500000000, A.D. 2027-Oct-16 00:00:00.0000, -3.062143326566144E+08, 7.709778030246201E+08, -1.697728915757239E+06,
2461701.500000000, A.D. 2027-Oct-23 00:00:00.0000, -3.132179403352740E+08, 7.693085902847570E+08, -3.393066745742857E+06,
2461708.500000000, A.D. 2027-Oct-30 00:00:00.0000, -3.201950227328320E+08, 7.675741174585028E+08, -5.088115718960345E+06,
2461715.500000000, A.D. 2027-Nov-06 00:00:00.0000, -3.271450909069853E+08, 7.657747793689330E+08, -6.782733841217399E+06,
2461722.500000000, A.D. 2027-Nov-13 00:00:00.0000, -3.340676616480452E+08, 7.639109743263955E+08, -8.476780049178958E+06,
2461729.500000000, A.D. 2027-Nov-20 00:00:00.0000, -3.409622587903802E+08, 7.619831025873358E+08, -1.017011419947869E+07,
2461736.500000000, A.D. 2027-Nov-27 00:00:00.0000, -3.478284124474689E+08, 7.599915651167114E+08, -1.186259722443792E+07,
2461743.500000000, A.D. 2027-Dec-04 00:00:00.0000, -3.546656581942412E+08, 7.579367635681632E+08, -1.355409119410387E+07,
2461750.500000000, A.D. 2027-Dec-11 00:00:00.0000, -3.614735367472315E+08, 7.558191005181048E+08, -1.524445931284955E+07,
2461757.500000000, A.D. 2027-Dec-18 00:00:00.0000, -3.682515938675295E+08, 7.536389796146704E+08, -1.693356590339762E+07,
2461764.500000000, A.D. 2027-Dec-25 00:00:00.0000, -3.749993803345435E+08, 7.513968056394072E+08, -1.862127639229968E+07,
2461771.500000000, A.D. 2028-Jan-01 00:00:00.0000, -3.817164519491629E+08, 7.490929844963460E+08, -2.030745729937372E+07,
$$EOE